2025-140A               
1 64691U 25140A   25202.17176183  .00000655  00000+0  10978-3 0  9996
2 64691  95.9830  44.5900 0011903 225.0406 134.9842 14.71665877  3362
ELECTRON KICK STAGE R/B 
1 64692U 25140B   25202.16570139  .00001154  00000+0  18804-3 0  9996
2 64692  95.9832  44.5967 0013088 218.5813 141.4465 14.72066563  3365
GOSAT-GW (IBUKI GW)     
1 64694U 25141A   25201.89811830  .00000725  00000+0  13616-3 0  9993
2 64694  98.0258 140.2022 0001505  84.5638 275.5739 14.67569277  3251
H-2A R/B                
1 64695U 25141B   25201.91641801  .00001302  00000+0  13472-3 0  9998
2 64695  98.0471 140.9456 0094389 192.1062 167.7886 14.88724320  3302
STARLINK-34497          
1 64696U 25142A   25202.25001157 -.01869667  00000+0 -43586-1 0  9998
2 64696  69.9993 187.3949 0003513 266.8877 275.9587 15.45228430  4736
STARLINK-34584          
1 64697U 25142B   25202.25001157  .00064835  00000+0  10496-2 0  9995
2 64697  69.9996 187.3646 0003629 272.5816 300.6359 15.52475594  4577
STARLINK-34535          
1 64698U 25142C   25202.25001157 -.00024644  00000+0 -39861-3 0  9990
2 64698  69.9995 187.3616 0003613 267.6239 307.4399 15.52550489  4533
STARLINK-34600          
1 64699U 25142D   25202.25001157 -.00587481  00000+0 -10193-1 0  9999
2 64699  69.9995 187.3592 0003573 273.6651 303.3298 15.52727669  4570
STARLINK-34560          
1 64700U 25142E   25202.25001157 -.01548575  00000+0 -31827-1 0  9991
2 64700  69.9999 187.3618 0003193 281.4489 290.4687 15.48773938  4539
STARLINK-34576          
1 64701U 25142F   25201.91668981  .00085686  00000+0  13827-2 0  9995
2 64701  69.9994 188.2682 0003491 265.4427 253.0227 15.52475052  4470
STARLINK-34322          
1 64702U 25142G   25202.25001157  .00064432  00000+0  10432-2 0  9995
2 64702  69.9995 187.3532 0003579 271.2798 311.5243 15.52474486  4736
STARLINK-34470          
1 64703U 25142H   25202.25001157  .00065777  00000+0  10647-2 0  9997
2 64703  69.9994 187.3509 0003630 273.1267 311.5912 15.52475043  4531
STARLINK-34405          
1 64704U 25142J   25202.25001157 -.01543580  00000+0 -35323-1 0  9991
2 64704  69.9991 187.3719 0003153 281.3271 281.7731 15.45680037  4583
STARLINK-34406          
1 64705U 25142K   25202.25001157 -.01589937  00000+0 -31334-1 0  9996
2 64705  69.9996 187.3482 0003349 278.6192 306.8092 15.50037625  4690
STARLINK-34559          
1 64706U 25142L   25202.25001157  .00019922  00000+0  32578-3 0  9999
2 64706  69.9997 187.3438 0003489 273.9712 316.4815 15.52515003  4585
STARLINK-34316          
1 64707U 25142M   25202.25001157  .00065747  00000+0  10642-2 0  9993
2 64707  69.9995 187.3413 0003599 270.3240 322.0578 15.52475792  4743
STARLINK-34563          
1 64708U 25142N   25202.25001157  .00062186  00000+0  10065-2 0  9997
2 64708  69.9995 187.3396 0003548 269.9991 324.2355 15.52494412  4427
STARLINK-34499          
1 64709U 25142P   25202.25001157  .00076429  00000+0  12355-2 0  9997
2 64709  69.9995 187.3361 0003488 271.8211 324.3905 15.52464903  4424
STARLINK-34447          
1 64710U 25142Q   25202.25001157  .00063781  00000+0  10327-2 0  9993
2 64710  69.9995 187.3344 0003623 272.7341 325.3975 15.52476184  4749
STARLINK-34312          
1 64711U 25142R   25202.25001157  .00068262  00000+0  11045-2 0  9991
2 64711  69.9994 187.3319 0003626 272.5188 327.5276 15.52474431  4742
STARLINK-34515          
1 64712U 25142S   25202.25001157  .00064216  00000+0  10397-2 0  9996
2 64712  69.9994 187.3298 0003588 273.1343 328.8316 15.52475357  4428
STARLINK-34583          
1 64713U 25142T   25202.25001157  .00061117  00000+0  99003-3 0  9996
2 64713  69.9994 187.3277 0003605 271.2532 332.6327 15.52475747  4423
STARLINK-34574          
1 64714U 25142U   25202.25001157  .00066797  00000+0  10810-2 0  9994
2 64714  69.9994 187.3250 0003705 273.2168 332.5811 15.52475906  4584
STARLINK-34533          
1 64715U 25142V   25202.25001157 -.01529946  00000+0 -33443-1 0  9994
2 64715  69.9996 187.3360 0003117 278.7638 313.5412 15.46977333  4511
STARLINK-34548          
1 64716U 25142W   25202.25001157 -.01539363  00000+0 -31367-1 0  9992
2 64716  69.9986 187.3227 0002964 276.6973 326.7489 15.49002241  4533
STARLINK-34568          
1 64717U 25142X   25202.25001157 -.01579973  00000+0 -29910-1 0  9995
2 64717  69.9992 187.3185 0003361 272.6770 337.9047 15.51145241  4587
STARLINK-34546          
1 64718U 25142Y   25202.25001157 -.01091789  00000+0 -19357-1 0  9994
2 64718  69.9998 187.3157 0003426 266.5566 346.8396 15.52833794  4742
STARLINK-34577          
1 64719U 25142Z   25202.25001157  .00064280  00000+0  10407-2 0  9996
2 64719  69.9994 187.3115 0003381 273.1388 344.1554 15.52476750  4583
STARLINK-34572          
1 64720U 25142AA  25202.25001157  .00083021  00000+0  13406-2 0  9994
2 64720  69.9994 187.3136 0003827 271.7753 343.6074 15.52466218  4740
STARLINK-34558          
1 64721U 25142AB  25202.25001157  .00063386  00000+0  10263-2 0  9995
2 64721  69.9995 187.3093 0003766 273.5488 345.6631 15.52477477  4538
MTG-S1                  
1 64723U 25143A   25199.17891877 -.00000024  00000+0  00000+0 0  9996
2 64723   1.0023 303.4837 0000323  57.5972 356.0752  1.00270574    72
STARLINK-34393          
1 64724U 25144A   25202.25001157 -.01534203  00000+0 -18825-1 0  9995
2 64724  53.1591 179.1357 0001101  67.5178 310.8409 15.62729680  4239
STARLINK-34562          
1 64725U 25144B   25202.25001157 -.01530534  00000+0 -18777-1 0  9995
2 64725  53.1589 179.1315 0000957  69.6650 310.6118 15.62727635  4218
STARLINK-34557          
1 64726U 25144C   25202.25001157 -.01536077  00000+0 -18850-1 0  9996
2 64726  53.1591 179.1275 0001030  55.5863 326.6042 15.62731447  4231
STARLINK-34242          
1 64727U 25144D   25202.25001157 -.01535599  00000+0 -18844-1 0  9998
2 64727  53.1591 179.1237 0001005  56.1474 327.9606 15.62730892  4230
STARLINK-34239          
1 64728U 25144E   25202.16668981 -.01546167  00000+0 -18773-1 0  9997
2 64728  53.1590 179.5252 0001211  76.2308 200.7279 15.63019400  4217
STARLINK-34588          
1 64729U 25144F   25202.25001157 -.01530644  00000+0 -18778-1 0  9992
2 64729  53.1592 179.1151 0001022  62.4196 325.5245 15.62727718  4234
STARLINK-34606          
1 64730U 25144G   25202.25001157 -.01532459  00000+0 -18802-1 0  9998
2 64730  53.1593 179.1107 0001027  61.9177 327.9426 15.62729003  4232
STARLINK-34552          
1 64731U 25144H   25202.25001157 -.01530560  00000+0 -18777-1 0  9991
2 64731  53.1594 179.1067 0000963  71.7425 320.0356 15.62728075  4236
STARLINK-34596          
1 64732U 25144J   25202.25001157 -.01528094  00000+0 -18745-1 0  9996
2 64732  53.1590 179.1031 0000919  70.8197 322.8771 15.62725835  4233
STARLINK-34556          
1 64733U 25144K   25202.25001157 -.01529999  00000+0 -18769-1 0  9998
2 64733  53.1586 179.0991 0001010  61.8115 333.7993 15.62727980  4236
STARLINK-34591          
1 64734U 25144L   25202.25001157 -.01533710  00000+0 -18818-1 0  9990
2 64734  53.1591 179.0955 0001059  51.7643 345.7608 15.62730366  4216
STARLINK-34587          
1 64735U 25144M   25202.25001157 -.01536122  00000+0 -18850-1 0  9997
2 64735  53.1589 179.0911 0001046  53.5784 345.8630 15.62732127  4176
STARLINK-34130          
1 64736U 25144N   25202.25001157 -.01535617  00000+0 -18843-1 0  9998
2 64736  53.1591 179.0869 0001126  57.1249 344.2341 15.62731431  4233
STARLINK-34619          
1 64737U 25144P   25202.25001157 -.01527717  00000+0 -18738-1 0  9994
2 64737  53.1589 179.0825 0001101  60.0700 343.2080 15.62726611  4234
STARLINK-34597          
1 64738U 25144Q   25202.25001157 -.01530958  00000+0 -18782-1 0  9995
2 64738  53.1590 179.0784 0001028  56.2088 348.9869 15.62728102  4217
STARLINK-34471          
1 64739U 25144R   25202.25001157 -.01534406  00000+0 -18827-1 0  9998
2 64739  53.1592 179.0743 0001118  60.3352 346.7756 15.62730592  4177
STARLINK-34208          
1 64740U 25144S   25202.25001157 -.01539102  00000+0 -18889-1 0  9996
2 64740  53.1592 179.0711 0001146  53.8599 355.1648 15.62733951  4238
STARLINK-34205          
1 64741U 25144T   25202.25001157 -.01532725  00000+0 -18805-1 0  9999
2 64741  53.1593 179.0667 0001131  59.8845 351.0610 15.62728940  4230
STARLINK-34607          
1 64742U 25144U   25202.25001157 -.01533507  00000+0 -18816-1 0  9991
2 64742  53.1595 179.0624 0001108  58.4523 354.4107 15.62728843  4216
STARLINK-34236          
1 64743U 25144V   25202.25001157 -.01532325  00000+0 -18800-1 0  9992
2 64743  53.1588 179.0586 0001033  59.2277 355.5518 15.62729155  4235
STARLINK-34185          
1 64744U 25144W   25202.25001157 -.01536772  00000+0 -18859-1 0  9997
2 64744  53.1592 179.0545 0001071  61.2839 355.4114 15.62731824  4232
STARLINK-34581          
1 64745U 25144X   25202.25001157 -.01530200  00000+0 -18772-1 0  9992
2 64745  53.1587 179.0501 0001084  55.7684   2.8462 15.62726977  4231
STARLINK-34592          
1 64746U 25144Y   25202.25001157 -.01534709  00000+0 -18832-1 0  9998
2 64746  53.1590 179.0471 0001150  56.3818   4.1485 15.62729169  4238
STARLINK-34589          
1 64747U 25144Z   25202.25001157 -.01538346  00000+0 -18880-1 0  9993
2 64747  53.1591 179.0426 0001088  59.5714   2.8742 15.62732596  4239
STARLINK-34536          
1 64748U 25144AA  25202.25001157 -.01532356  00000+0 -18801-1 0  9992
2 64748  53.1591 179.0388 0001188  57.8054   6.5603 15.62726941  4230
STARLINK-34595          
1 64749U 25144AB  25202.25001157 -.01531759  00000+0 -18794-1 0  9990
2 64749  53.1592 179.0309 0001086  58.3395   9.8620 15.62726257  4231
STARLINK-34531          
1 64750U 25144AC  25202.25001157 -.01533623  00000+0 -18818-1 0  9991
2 64750  53.1592 179.0347 0001134  58.8578   7.4250 15.62728048  4230
PROGRESS-MS 31          
1 64751U 25146A   25201.84759595  .00007915  00000+0  14663-3 0  9997
2 64751  51.6338 140.2277 0002187  99.1799 260.9438 15.49977817  2097
